ONEWEB-0247             
1 48777U 21045L   24011.55830313  .00000119  00000+0  28222-3 0  9990
2 48777  87.8992  75.9069 0002754 121.8664 238.2734 13.15545246127702
ONEWEB-0245             
1 48778U 21045M   24011.55352586  .00000093  00000+0  21292-3 0  9993
2 48778  87.8981  75.9080 0002117  99.1490 260.9879 13.15550521127671
ONEWEB-0229             
1 48779U 21045N   24011.24454900  .00000145  00000+0  35231-3 0  9999
2 48779  87.8980  75.9615 0001915 109.2507 250.8831 13.15549333127666
ONEWEB-0228             
1 48780U 21045P   24011.56384489  .00000058  00000+0  12069-3 0  9997
2 48780  87.8979  75.8765 0001862 105.8312 254.3024 13.15549829127627
ONEWEB-0232             
1 48781U 21045Q   24011.55671225  .00000166  00000+0  40672-3 0  9995
2 48781  87.8975  75.9066 0001770 106.9065 253.2259 13.15556257127940
ONEWEB-0231             
1 48782U 21045R   24011.61057644  .00000157  00000+0  38214-3 0  9995
2 48782  87.8989  75.9014 0002059 108.0783 252.0571 13.15548571127641
ONEWEB-0234             
1 48783U 21045S   24011.55432633  .00000102  00000+0  23787-3 0  9993
2 48783  87.8982  75.8842 0002065  60.9475 299.1862 13.15548571127773
